ONEWEB-0504             
1 54122U 22138K   25017.80151576  .00000108  00000+0  23840-3 0  9996
2 54122  87.9144  47.4242 0001431  95.0807 265.0489 13.19726992108855
ONEWEB-0505             
1 54123U 22138L   25017.79835104  .00000100  00000+0  21754-3 0  9995
2 54123  87.9142  47.4166 0001302 110.2876 249.8397 13.19727571108832
ONEWEB-0506             
1 54124U 22138M   25017.77307676  .00000064  00000+0  12671-3 0  9999
2 54124  87.9144  47.4189 0001637 100.2822 259.8495 13.19727597108828
ONEWEB-0507             
1 54125U 22138N   25017.79361080  .00000123  00000+0  27369-3 0  9997
2 54125  87.9151  47.4541 0001715 102.0599 258.0726 13.19727330108875
ONEWEB-0508             
1 54126U 22138P   25017.79045010  .00000138  00000+0  31285-3 0  9998
2 54126  87.9148  47.4420 0001701 108.7678 251.3639 13.19727673108851
ONEWEB-0509             
1 54127U 22138Q   25017.76519560  .00000016  00000+0  68331-5 0  9991
2 54127  87.9143  47.4197 0001698  97.3249 262.8077 13.19727535108827
ONEWEB-0510             
1 54128U 22138R   25018.06106625 -.00000048  00000+0 -14941-3 0  9993
2 54128  87.9252  16.9212 0002098  89.3445 270.7928 13.20773123112185
ONEWEB-0511             
1 54129U 22138S   25017.83783712  .00000011  00000+0 -53854-5 0  9993
2 54129  87.9142  47.4097 0001524  85.0922 275.0385 13.19727795108867
